CUTE-1 (CO-55)          
1 27844U 03031E   25303.24143168  .00000498  00000+0  23510-3 0  9998
2 27844  98.6784 309.7029 0010457 129.2879 230.9229 14.24123661158948
CUBESAT XI-IV (CO-57)   
1 27848U 03031J   25302.97605844  .00000410  00000+0  19946-3 0  9997
2 27848  98.6812 309.3373 0010068 146.4241 213.7578 14.23439813158623
CUBESAT XI-V            
1 28895U 05043F   25303.20230954  .00002975  00000+0  48576-3 0  9997
2 28895  98.2695  89.5601 0013833 211.4045 148.6337 14.71627276 67915
CUTE-1.7+APD II (CO-65) 
1 32785U 08021C   25303.20379874  .00009434  00000+0  64617-3 0  9995
2 32785  97.8041 275.7132 0011556  89.3190 270.9361 15.06238606950538
CANX-2                  
1 32790U 08021H   25302.90750866  .00006294  00000+0  46977-3 0  9991
2 32790  97.8392 273.9891 0013529  98.7291 261.5467 15.03136680950183
SEEDS II (CO-66)        
1 32791U 08021J   25302.91812434  .00023451  00000+0  99322-3 0  9999
2 32791  97.7424 286.6337 0005750  58.7933 301.3865 15.23153570952121
SWISSCUBE               
1 35932U 09051B   25303.23889205  .00001861  00000+0  38297-3 0  9994
2 35932  98.4138 202.0451 0006051 199.1375 160.9599 14.61758747855555
BEESAT-1                
1 35933U 09051C   25303.20446760  .00001571  00000+0  32950-3 0  9995
2 35933  98.4069 202.1046 0004309 212.1752 147.9185 14.61108828855598
ITUPSAT1                
1 35935U 09051E   25303.20272580  .00001427  00000+0  30819-3 0  9996
2 35935  98.4161 201.5218 0006381 227.1182 132.9482 14.59878234855172
TISAT 1                 
1 36799U 10035E   25303.26359318  .00026572  00000+0  11915-2 0  9993
2 36799  98.0548 226.5482 0003152  24.9390 335.1995 15.21193032832620
AEROCUBE 4.5A           
1 38767U 12048K   25302.88599516  .00055231  00000+0  11094-2 0  9991
2 38767  64.6428 108.3533 0081615 241.0710 118.2224 15.42725266336699
STRAND-1                
1 39090U 13009E   25303.01107191  .00000540  00000+0  19662-3 0  9992
2 39090  98.3841 124.0223 0008374 192.0369 168.0619 14.36947410664008
BRITE-AUSTRIA           
1 39091U 13009F   25303.06865347  .00000345  00000+0  13235-3 0  9995
2 39091  98.3905 123.3132 0009744 201.4117 158.6663 14.36397092664019
NEE-01 PEGASO           
1 39151U 13018B   25302.83385808  .00005119  00000+0  51162-3 0  9990
2 39151  98.0918  75.1182 0012855 198.4967 161.5785 14.91876317676330
POPACS 1                
1 39268U 13055D   25302.89196444  .00140913  46570-5  72105-3 0  9992
2 39268  80.9606 268.4891 0159545 203.1760 156.2248 15.64934797636687
POPACS 2                
1 39269U 13055E   25302.54902912  .00033091  00000+0  62025-3 0  9990
2 39269  80.9966  46.4170 0456421 209.9353 147.5042 14.80934804628947
POPACS 3                
1 39270U 13055F   25303.19582832  .00011662  00000+0  28616-3 0  9997
2 39270  81.0006 117.6138 0573116  48.0408 316.8171 14.50850407605149
ZACUBE-1 (TSHEPISOSAT)  
1 39417U 13066B   25303.12812305  .00008126  00000+0  67433-3 0  9997
2 39417  97.7976 259.6490 0041388 297.2228  62.4779 14.98380276646247
WNISAT-1                
1 39423U 13066H   25303.00203906  .00002045  00000+0  38417-3 0  9996
2 39423  97.6917 104.0116 0163514 236.7193 121.8253 14.57442048633199
TRITON-1                
1 39427U 13066M   25303.24475662  .00004920  00000+0  61151-3 0  9991
2 39427  97.8282 213.4107 0090937 263.1581  95.9278 14.80107758640051
GOMX-1                  
1 39430U 13066Q   25303.29202618  .00002779  00000+0  42902-3 0  9992
2 39430  97.6644 153.1348 0132423  95.2613 266.3719 14.68300559636160
CUBEBUG-2 (LO-74)       
1 39440U 13066AA  25302.80003587  .00007259  00000+0  70831-3 0  9993
2 39440  97.8636 246.5692 0062506  70.8883 289.9089 14.91248933642627
NEE-02 KRYSAOR          
1 39441U 13066AB  25302.78830167  .00003626  00000+0  41167-3 0  9997
2 39441  97.8661 239.1620 0069513 104.3440 256.5505 14.85176040641985
FUNCUBE-1 (AO-73)       
1 39444U 13066AE  25303.18534005  .00014086  00000+0  98258-3 0  9992
2 39444  97.7999 265.9782 0037815 264.9349  94.7560 15.04915716645012
UWE-3                   
1 39446U 13066AG  25302.84085126  .00007704  00000+0  70173-3 0  9996
2 39446  97.8404 253.2017 0052261   9.0298 351.1849 14.94389180643140
BRITE-CA1 (TORONTO)     
1 40020U 14033L   25303.27453767  .00001616  00000+0  25355-3 0  9997
2 40020  97.9459  71.9796 0078335 293.3353  65.9626 14.72010252608387
DUCHIFAT-1              
1 40021U 14033M   25303.06807247  .00042241  00000+0  11845-2 0  9998
2 40021  98.0872 330.4645 0007708 163.6565 196.4927 15.36441135620135
NANOSATC-BR1            
1 40024U 14033Q   25302.98649772  .00021231  00000+0  91343-3 0  9996
2 40024  98.0934 311.2371 0002013 263.5387  96.5619 15.22659514618846
QB50P1                  
1 40025U 14033R   25302.20187784  .00014233  00000+0  80344-3 0  9995
2 40025  98.0961 293.0167 0007860 303.3302  56.7174 15.13238533618031
QB50P2                  
1 40032U 14033Y   25303.18012655  .00011826  00000+0  71624-3 0  9991
2 40032  98.0600 281.6945 0006226 229.3166 130.7522 15.10753789617880
PERSEUS-M2              
1 40037U 14033AD  25303.29511682  .00003176  00000+0  30013-3 0  9998
2 40037  97.9675 244.7294 0011893 349.0547  11.0412 14.94400827616433
PERSEUS-M1              
1 40039U 14033AF  25303.08010769  .00003206  00000+0  30263-3 0  9998
2 40039  97.9386 238.9697 0011641 348.6139  11.4816 14.94434172616251
POLYITAN-1              
1 40042U 14033AJ  25302.96971605  .00023969  00000+0  10063-2 0  9996
2 40042  98.1107 303.9723 0006855 217.9916 142.0836 15.23446176618428
TIGRISAT                
1 40043U 14033AK  25303.21052402  .00003784  00000+0  45231-3 0  9990
2 40043  97.7537  94.1354 0051745 108.5967 252.0877 14.83801429611509
AEROCUBE 6A             
1 40045U 14033AM  25303.00450366  .00009878  00000+0  90618-3 0  9999
2 40045  97.7045 108.2616 0042188  66.3478 294.2162 14.94386378612196
AEROCUBE 6B             
1 40046U 14033AN  25303.01706510  .00010728  00000+0  95278-3 0  9999
2 40046  97.7034 107.6298 0040936  59.0000 301.5232 14.95669790612309
CANX-4                  
1 40055U 14034C   25303.16687200  .00001656  00000+0  22293-3 0  9997
2 40055  98.3408 164.6597 0013771  34.7539 325.4569 14.80603558610489
CANX-5                  
1 40056U 14034D   25303.16787414  .00001669  00000+0  22463-3 0  9999
2 40056  98.3411 164.6909 0013770  34.9306 325.2806 14.80619269601291
UKUBE-1                 
1 40074U 14037F   25303.15637403  .00016300  00000+0  10505-2 0  9994
2 40074  98.4105 278.3207 0001504 126.4956 233.6409 15.08415837613814
BRITE-PL2 (HEWELIUSZ)   
1 40119U 14049B   25303.25202790  .00004519  00000+0  43566-3 0  9998
2 40119  97.8980  48.9127 0015182 147.7252 212.4899 14.93335313607119
AEROCUBE 5C             
1 40965U 15058B   25303.26063140  .00003699  00000+0  33232-3 0  9990
2 40965  64.7671 257.0185 0143570 152.2107 208.6772 14.89708423331389
AEROCUBE 7              
1 40966U 15058C   25303.20003974  .00005322  00000+0  43805-3 0  9996
2 40966  64.7628 243.9897 0134313 152.0555 208.7857 14.93342179331580
FOX-1A (AO-85)          
1 40967U 15058D   25303.29893832  .00003451  00000+0  31798-3 0  9995
2 40967  64.7750 272.5244 0140105 146.3256 214.6857 14.89221222 79317
SINOD-D 1               
1 40968U 15058E   25303.26771636  .00005568  00000+0  46263-3 0  9994
2 40968  64.7752 257.6899 0128845 144.8320 216.1385 14.93449716 82291
SNAP-3 ALICE            
1 40970U 15058G   25303.04437024  .00044049  00000+0  14723-2 0  9995
2 40970  64.7610 158.7722 0055568 145.1433 215.3359 15.29257004 81381
LMRST-SAT               
1 40971U 15058H   25303.26546364  .00003283  00000+0  30397-3 0  9999
2 40971  64.7753 268.5550 0142666 148.0305 212.9564 14.88889814 79309
SNAP-3 EDDIE            
1 40972U 15058J   25302.98103890  .00044021  00000+0  14333-2 0  9997
2 40972  64.7534 151.0469 0059509 147.7336 212.7459 15.29872581 83490
PROPCUBE 3              
1 40973U 15058K   25303.23540886  .00004716  00000+0  40062-3 0  9993
2 40973  64.7688 249.9298 0136412 150.1531 210.7453 14.92125844 80460
BISONSAT                
1 40974U 15058L   25303.03911222  .00015537  00000+0  87601-3 0  9991
2 40974  64.7612 194.2569 0095260 147.7461 212.9536 15.09520461 80795
SNAP-3 JIMI             
1 40975U 15058M   25303.09463335  .00007915  00000+0  57506-3 0  9997
2 40975  64.7654 226.0545 0119584 148.9577 211.8679 14.98875490 79692
PROPCUBE 1 (FLORA)      
1 40976U 15058N   25303.28265841  .00003111  00000+0  29927-3 0  9991
2 40976  64.7744 286.9517 0142052 150.0635 210.8698 14.87597464 82045
SINOD-D 3               
1 40977U 15058P   25303.28425650  .00004857  00000+0  42227-3 0  9994
2 40977  64.7721 272.5800 0130933 149.0792 211.8117 14.91729066 80432
HORYU-4                 
1 41340U 16012D   25303.29272699  .00055344  00000+0  10990-2 0  9992
2 41340  30.9947 247.1601 0003584 148.6898 211.3964 15.45701303534817
RAVAN                   
1 41849U 16067B   25303.18311497  .00035664  00000+0  10154-2 0  9999
2 41849  98.0230 164.3351 0009511  93.3570 266.8760 15.35986205492189
CELTEE 1                
1 41850U 16067C   25303.12801143  .00009099  00000+0  47170-3 0  9999
2 41850  98.0932 149.0768 0000995  33.0371 327.0922 15.16424987490977
OPTICUBE 04             
1 41851U 16067D   25303.11808336  .00003717  00000+0  24448-3 0  9994
2 41851  98.0867 138.2990 0016219 170.4823 189.6714 15.08157140490477
AEROCUBE 8D             
1 41852U 16067E   25303.11500547  .00011581  00000+0  54122-3 0  9998
2 41852  98.0956 151.0429 0003061 187.6332 172.4855 15.19972959491060
AEROCUBE 8C             
1 41853U 16067F   25303.10680564  .00011762  00000+0  54654-3 0  9997
2 41853  98.0818 148.5860 0006766 125.7794 234.4069 15.20149914491052
PROMETHEUS 2-1          
1 41854U 16067G   25303.21000197  .00282554  00000+0  18940-2 0  9994
2 41854  98.0467 175.1250 0006860  90.0827 270.1222 15.74404105492603
